NORAD_CAT_ID,OBJECT_NAME,OBJECT_TYPE,EPOCH,MEAN_MOTION,ECCENTRICITY,INCLINATION,RA_OF_ASC_NODE,ARG_OF_PERICENTER,MEAN_ANOMALY,BSTAR,MEAN_MOTION_DOT,MEAN_MOTION_DDOT,TLE_LINE0,TLE_LINE1,TLE_LINE2,SEMIMAJOR_AXIS,PERIOD,APOGEE,PERIGEE,DECAYED
51985.0,STARLINK-3651,PAYLOAD,2023-06-21 17:26:01,15.08843323,9.67e-05,53.2158,172.2247,84.3778,275.7325,5.6947e-05,6.19e-06,0.0,0 STARLINK-3651,1 51985U 22025AF  23172.72640706  .00000619  00000-0  56947-4 0  9997,2 51985  53.2158 172.2247 0000967  84.3778 275.7325 15.08843323 71307,6917.87,95.437,540.404,539.066,0.0
51985.0,STARLINK-3651,PAYLOAD,2023-06-22 09:19:51,15.0885713,9.73e-05,53.2154,169.2495,92.9186,267.1918,0.00014003,1.943e-05,0.0,0 STARLINK-3651,1 51985U 22025AF  23173.38879105  .00001943  00000-0  14003-3 0  9994,2 51985  53.2154 169.2495 0000973  92.9186 267.1918 15.08857130 72494,6917.828,95.436,540.366,539.02,0.0
51985.0,STARLINK-3651,PAYLOAD,2023-06-23 09:10:40,15.08836269,0.0001018,53.2154,164.7891,86.366,273.7448,-1.9396e-05,-5.96e-06,0.0,0 STARLINK-3651,1 51985U 22025AF  23174.38240896 -.00000596  00000-0 -19396-4 0  9990,2 51985  53.2154 164.7891 0001018  86.3660 273.7448 15.08836269 72647,6917.892,95.438,540.461,539.053,0.0
51985.0,STARLINK-3651,PAYLOAD,2023-06-25 02:30:41,15.08836183,0.0001115,53.216,157.0589,78.5966,281.5151,0.00012916,1.768e-05,0.0,0 STARLINK-3651,1 51985U 22025AF  23176.10465013  .00001768  00000-0  12916-3 0  9992,2 51985  53.2160 157.0589 0001115  78.5966 281.5151 15.08836183 72905,6917.892,95.438,540.528,538.986,0.0
51985.0,STARLINK-3651,PAYLOAD,2023-06-26 07:07:38,15.08841301,0.0001151,53.2154,151.7069,84.3438,275.7685,0.00015517,2.183e-05,0.0,0 STARLINK-3651,1 51985U 22025AF  23177.29697301  .00002183  00000-0  15517-3 0  9992,2 51985  53.2154 151.7069 0001151  84.3438 275.7685 15.08841301 73086,6917.876,95.437,540.538,538.945,0.0
51985.0,STARLINK-3651,PAYLOAD,2023-06-26 15:04:34,15.08836745,0.0001118,53.2149,150.2201,82.5396,277.5723,4.6242e-05,4.48e-06,0.0,0 STARLINK-3651,1 51985U 22025AF  23177.62817569  .00000448  00000-0  46242-4 0  9991,2 51985  53.2149 150.2201 0001118  82.5396 277.5723 15.08836745 73133,6917.89,95.438,540.529,538.982,0.0
51985.0,STARLINK-3651,PAYLOAD,2023-06-28 02:03:03,15.0883758,0.0001258,53.2157,143.6787,89.5047,270.6089,7.7059e-05,9.39e-06,0.0,0 STARLINK-3651,1 51985U 22025AF  23179.08545951  .00000939  00000-0  77059-4 0  9991,2 51985  53.2157 143.6787 0001258  89.5047 270.6089 15.08837580 73353,6917.888,95.438,540.623,538.883,0.0
51985.0,STARLINK-3651,PAYLOAD,2023-06-29 06:40:00,15.08838728,0.0001341,53.2154,138.3241,86.9806,273.134,0.00011155,1.488e-05,0.0,0 STARLINK-3651,1 51985U 22025AF  23180.27778350  .00001488  00000-0  11155-3 0  9999,2 51985  53.2154 138.3241 0001341  86.9806 273.1340 15.08838728 73536,6917.884,95.438,540.677,538.822,0.0
51985.0,STARLINK-3651,PAYLOAD,2023-06-30 14:27:43,15.08839221,0.0001274,53.2167,132.3766,100.9048,259.2087,6.8057e-05,7.95e-06,0.0,0 STARLINK-3651,1 51985U 22025AF  23181.60258105  .00000795  00000-0  68057-4 0  9992,2 51985  53.2167 132.3766 0001274 100.9048 259.2087 15.08839221 73730,6917.883,95.438,540.629,538.866,0.0
51985.0,STARLINK-3651,PAYLOAD,2023-07-02 03:01:35,15.08840833,0.000132,53.2165,125.5398,94.5586,265.5557,5.1002e-05,5.24e-06,0.0,0 STARLINK-3651,1 51985U 22025AF  23183.12610516  .00000524  00000-0  51002-4 0  9991,2 51985  53.2165 125.5398 0001320  94.5586 265.5557 15.08840833 73968,6917.878,95.438,540.656,538.83,0.0
51985.0,STARLINK-3651,PAYLOAD,2023-07-03 12:24:41,15.08843619,0.0001303,53.2163,119.2957,96.7426,263.3714,0.00015669,2.207e-05,0.0,0 STARLINK-3651,1 51985U 22025AF  23184.51714523  .00002207  00000-0  15669-3 0  9996,2 51985  53.2163 119.2957 0001303  96.7426 263.3714 15.08843619 74175,6917.869,95.437,540.636,538.833,0.0
51985.0,STARLINK-3651,PAYLOAD,2023-07-04 01:07:46,15.08835965,0.0001322,53.2167,116.9169,97.3267,262.7876,1.2434e-05,-9e-07,0.0,0 STARLINK-3651,1 51985U 22025AF  23185.04706922 -.00000090  00000-0  12434-4 0  9996,2 51985  53.2167 116.9169 0001322  97.3267 262.7876 15.08835965 74255,6917.893,95.438,540.672,538.843,0.0
51985.0,STARLINK-3651,PAYLOAD,2023-07-05 00:58:33,15.08846098,0.0001309,53.217,112.4553,99.8468,260.2672,0.00010154,1.329e-05,0.0,0 STARLINK-3651,1 51985U 22025AF  23186.04066344  .00001329  00000-0  10154-3 0  9995,2 51985  53.2170 112.4553 0001309  99.8468 260.2672 15.08846098 74405,6917.862,95.437,540.632,538.821,0.0
51985.0,STARLINK-3651,PAYLOAD,2023-07-06 04:00:07,15.08839709,0.0001348,53.2166,107.3986,86.6078,273.5069,8.1514e-05,1.01e-05,0.0,0 STARLINK-3651,1 51985U 22025AF  23187.16674903  .00001010  00000-0  81514-4 0  9991,2 51985  53.2166 107.3986 0001348  86.6078 273.5069 15.08839709 74573,6917.881,95.438,540.679,538.814,0.0
51985.0,STARLINK-3651,PAYLOAD,2023-07-07 18:09:22,15.08841286,0.000133,53.2163,100.2615,85.5743,274.5401,0.00013746,1.901e-05,0.0,0 STARLINK-3651,1 51985U 22025AF  23188.75651067  .00001901  00000-0  13746-3 0  9993,2 51985  53.2163 100.2615 0001330  85.5743 274.5401 15.08841286 74810,6917.876,95.437,540.662,538.821,0.0
51985.0,STARLINK-3651,PAYLOAD,2023-07-08 00:30:54,15.08850206,0.0001613,53.2175,99.0742,91.3711,268.7466,0.00022652,3.32e-05,0.0,0 STARLINK-3651,1 51985U 22025AF  23189.02146595  .00003320  00000-0  22652-3 0  9992,2 51985  53.2175  99.0742 0001613  91.3711 268.7466 15.08850206 74855,6917.849,95.437,540.83,538.598,0.0
51985.0,STARLINK-3651,PAYLOAD,2023-07-08 18:00:09,15.08837771,0.0001273,53.2162,95.8024,88.1743,271.9395,4.419e-05,4.15e-06,0.0,0 STARLINK-3651,1 51985U 22025AF  23189.75011251  .00000415  00000-0  44190-4 0  9996,2 51985  53.2162  95.8024 0001273  88.1743 271.9395 15.08837771 74960,6917.887,95.438,540.633,538.872,0.0
51985.0,STARLINK-3651,PAYLOAD,2023-07-10 03:23:15,15.08844455,0.0001102,53.2164,89.5583,95.1433,264.9685,0.00014595,2.036e-05,0.0,0 STARLINK-3651,1 51985U 22025AF  23191.14115138  .00002036  00000-0  14595-3 0  9997,2 51985  53.2164  89.5583 0001102  95.1433 264.9685 15.08844455 75172,6917.867,95.437,540.494,538.969,0.0
51985.0,STARLINK-3651,PAYLOAD,2023-07-11 00:03:16,15.08840878,9.31e-05,53.2161,85.6919,94.4255,265.6843,0.00030683,4.599e-05,0.0,0 STARLINK-3651,1 51985U 22025AF  23192.00227428  .00004599  00000-0  30683-3 0  9991,2 51985  53.2161  85.6919 0000931  94.4255 265.6843 15.08840878 75306,6917.878,95.437,540.387,539.099,0.0
51985.0,STARLINK-3651,PAYLOAD,2023-07-12 01:29:26,15.0884434,0.0001032,53.2171,80.9342,83.2709,276.84,0.0001118,1.492e-05,0.0,0 STARLINK-3651,1 51985U 22025AF  23193.06211158  .00001492  00000-0  11180-3 0  9991,2 51985  53.2171  80.9342 0001032  83.2709 276.8400 15.08844340 75466,6917.867,95.437,540.446,539.018,0.0
51985.0,STARLINK-3651,PAYLOAD,2023-07-13 15:38:42,15.08838387,0.0001198,53.2179,73.7979,78.2443,281.8683,2.4219e-05,9.8e-07,0.0,0 STARLINK-3651,1 51985U 22025AF  23194.65188146  .00000098  00000-0  24219-4 0  9996,2 51985  53.2179  73.7979 0001198  78.2443 281.8683 15.08838387 75702,6917.885,95.438,540.579,538.922,0.0
51985.0,STARLINK-3651,PAYLOAD,2023-07-14 21:51:01,15.08848634,0.0001139,53.2172,68.1487,88.4252,271.6871,0.00027086,4.027e-05,0.0,0 STARLINK-3651,1 51985U 22025AF  23195.91043424  .00004027  00000-0  27086-3 0  9995,2 51985  53.2172  68.1487 0001139  88.4252 271.6871 15.08848634 75895,6917.854,95.437,540.507,538.931,0.0
51985.0,STARLINK-3651,PAYLOAD,2023-07-15 02:37:10,15.08857904,0.0001155,53.2169,67.2562,100.123,259.9892,0.00037177,5.637e-05,0.0,0 STARLINK-3651,1 51985U 22025AF  23196.10914865  .00005637  00000-0  37177-3 0  9993,2 51985  53.2169  67.2562 0001155 100.1230 259.9892 15.08857904 75927,6917.826,95.436,540.49,538.892,0.0
51985.0,STARLINK-3651,PAYLOAD,2023-07-15 15:20:16,15.08836961,0.0001335,53.2173,64.8777,82.2709,277.8435,4.9626e-05,5.02e-06,0.0,0 STARLINK-3651,1 51985U 22025AF  23196.63908106  .00000502  00000-0  49626-4 0  9991,2 51985  53.2173  64.8777 0001335  82.2709 277.8435 15.08836961 76006,6917.89,95.438,540.678,538.831,0.0
51985.0,STARLINK-3651,PAYLOAD,2023-07-16 23:07:59,15.08843039,0.0001139,53.2174,58.929,84.6753,275.4369,0.0001664,2.362e-05,0.0,0 STARLINK-3651,1 51985U 22025AF  23197.96388043  .00002362  00000-0  16640-3 0  9995,2 51985  53.2174  58.9290 0001139  84.6753 275.4369 15.08843039 76204,6917.871,95.437,540.524,538.948,0.0
51985.0,STARLINK-3651,PAYLOAD,2023-07-19 00:24:56,15.08847714,0.0001127,53.217,49.7126,91.3799,268.7322,0.00015488,2.178e-05,0.0,0 STARLINK-3651,1 51985U 22025AF  23200.01731724  .00002178  00000-0  15488-3 0  9998,2 51985  53.2170  49.7126 0001127  91.3799 268.7322 15.08847714 76510,6917.857,95.437,540.501,538.942,0.0
51985.0,STARLINK-3651,PAYLOAD,2023-07-19 17:54:11,15.08834062,0.0001901,53.2193,46.4425,131.215,228.9006,-0.00022851,-3.923e-05,0.0,0 STARLINK-3651,1 51985U 22025AF  23200.74596261 -.00003923  00000-0 -22851-3 0  9996,2 51985  53.2193  46.4425 0001901 131.2150 228.9006 15.08834062 76627,6917.899,95.438,541.079,538.448,0.0
51985.0,STARLINK-3651,PAYLOAD,2023-07-21 00:06:30,15.08849885,0.0001168,53.2177,40.79,87.3746,272.738,0.00025322,3.745e-05,0.0,0 STARLINK-3651,1 51985U 22025AF  23202.00452243  .00003745  00000-0  25322-3 0  9994,2 51985  53.2177  40.7900 0001168  87.3746 272.7380 15.08849885 76813,6917.85,95.437,540.523,538.907,0.0
51985.0,STARLINK-3651,PAYLOAD,2023-07-23 23:38:52,15.08844686,0.0001052,53.2169,27.4114,79.4339,280.6772,9.8938e-05,1.287e-05,0.0,0 STARLINK-3651,1 51985U 22025AF  23204.98532603  .00001287  00000-0  98938-4 0  9995,2 51985  53.2169  27.4114 0001052  79.4339 280.6772 15.08844686 76171,6917.866,95.437,540.459,539.003,0.0
51985.0,STARLINK-3651,PAYLOAD,2023-07-25 13:48:07,15.08837778,0.0001307,53.2166,20.2745,69.5902,290.5231,6.223e-06,-1.89e-06,0.0,0 STARLINK-3651,1 51985U 22025AF  23206.57509024 -.00000189  00000-0  62230-5 0  9991,2 51985  53.2166  20.2745 0001307  69.5902 290.5231 15.08837778 76419,6917.887,95.438,540.656,538.848,0.0
